{"type": "FeatureCollection", "features": [ {"type": "Feature", "properties": {"norad_id": 35718, "name": "COSMOS 2251 DEB", "group": "cosmos-2251-debris", "lat": -37.83065808162138, "lon": -18.30122323488431, "alt_km": 664.3483456183067, "timestamp": "2025-12-02T23:34:15.913828+00:00", "meta": {"OBJECT_NAME": "COSMOS 2251 DEB", "OBJECT_ID": "1993-036AQP", "EPOCH": "2025-11-28T18:49:36.496416", "MEAN_MOTION": 14.68279459, "ECCENTRICITY": 0.00123436, "INCLINATION": 74.0315, "RA_OF_ASC_NODE": 156.9668, "ARG_OF_PERICENTER": 206.7375, "MEAN_ANOMALY": 153.316, "EPHEMERIS_TYPE": 0, "CLASSIFICATION_TYPE": "U", "NORAD_CAT_ID": 35718, "ELEMENT_SET_NO": 999, "REV_AT_EPOCH": 65635, "BSTAR": 0.0013999458, "MEAN_MOTION_DOT": 8.062e-05, "MEAN_MOTION_DDOT": 0}, "tle": {"line1": "1 35718U 93036AQP 25332.78445019  .00008062  00000+0  13999-2 0  9996", "line2": "2 35718  74.0315 156.9668 0012343 206.7375 153.3160 14.68279459656359"}}, "geometry": {"type": "Point", "coordinates": [-18.30122323488431, -37.83065808162138]}}, {"type": "Feature", "properties": {"norad_id": 35721, "name": "COSMOS 2251 DEB", "group": "cosmos-2251-debris", "lat": 1.7986061144829304, "lon": -163.77611785720794, "alt_km": 680.212311086837, "timestamp": "2025-12-02T23:34:15.913839+00:00", "meta": {"OBJECT_NAME": "COSMOS 2251 DEB", "OBJECT_ID": "1993-036AQS", "EPOCH": "2025-11-29T21:54:16.243200", "MEAN_MOTION": 14.34192363, "ECCENTRICITY": 0.01464404, "INCLINATION": 73.9503, "RA_OF_ASC_NODE": 201.3539, "ARG_OF_PERICENTER": 350.3358, "MEAN_ANOMALY": 9.498, "EPHEMERIS_TYPE": 0, "CLASSIFICATION_TYPE": "U", "NORAD_CAT_ID": 35721, "ELEMENT_SET_NO": 999, "REV_AT_EPOCH": 57605, "BSTAR": 0.0014885779, "MEAN_MOTION_DOT": 4.68e-05, "MEAN_MOTION_DDOT": 0}, "tle": {"line1": "1 35721U 93036AQS 25333.91268800  .00004680  00000+0  14886-2 0  9995", "line2": "2 35721  73.9503 201.3539 0146440 350.3358   9.4980 14.34192363576055"}}, "geometry": {"type": "Point", "coordinates": [-163.77611785720794, 1.7986061144829304]}}, {"type": "Feature", "properties": {"norad_id": 35724, "name": "COSMOS 2251 DEB", "group": "cosmos-2251-debris", "lat": -6.017908118640177, "lon": 142.9826122306624, "alt_km": 686.7875395900837, "timestamp": "2025-12-02T23:34:15.913849+00:00", "meta": {"OBJECT_NAME": "COSMOS 2251 DEB", "OBJECT_ID": "1993-036AQV", "EPOCH": "2025-11-30T08:09:18.426240", "MEAN_MOTION": 14.58149733, "ECCENTRICITY": 0.00590888, "INCLINATION": 74.0317, "RA_OF_ASC_NODE": 326.2795, "ARG_OF_PERICENTER": 123.6188, "MEAN_ANOMALY": 237.0635, "EPHEMERIS_TYPE": 0, "CLASSIFICATION_TYPE": "U", "NORAD_CAT_ID": 35724, "ELEMENT_SET_NO": 999, "REV_AT_EPOCH": 87348, "BSTAR": 0.00024156118, "MEAN_MOTION_DOT": 1.11e-05, "MEAN_MOTION_DDOT": 0}, "tle": {"line1": "1 35724U 93036AQV 25334.33979660  .00001110  00000+0  24156-3 0  9995", "line2": "2 35724  74.0317 326.2795 0059088 123.6188 237.0635 14.58149733873489"}}, "geometry": {"type": "Point", "coordinates": [142.9826122306624, -6.017908118640177]}}, {"type": "Feature", "properties": {"norad_id": 35759, "name": "COSMOS 2251 DEB", "group": "cosmos-2251-debris", "lat": 10.931288342917624, "lon": 51.64123132321624, "alt_km": 732.4589398316211, "timestamp": "2025-12-02T23:34:15.913859+00:00", "meta": {"OBJECT_NAME": "COSMOS 2251 DEB", "OBJECT_ID": "1993-036ARD", "EPOCH": "2025-12-02T09:41:30.766848", "MEAN_MOTION": 14.648293, "ECCENTRICITY": 0.007669, "INCLINATION": 74.0385, "RA_OF_ASC_NODE": 235.9215, "ARG_OF_PERICENTER": 356.5872, "MEAN_ANOMALY": 3.4761, "EPHEMERIS_TYPE": 0, "CLASSIFICATION_TYPE": "U", "NORAD_CAT_ID": 35759, "ELEMENT_SET_NO": 999, "REV_AT_EPOCH": 65984, "BSTAR": 0.00048579, "MEAN_MOTION_DOT": 2.675e-05, "MEAN_MOTION_DDOT": 0}, "tle": {"line1": "1 35759U 93036ARD 25336.40382832  .00002675  00000+0  48579-3 0  9994", "line2": "2 35759  74.0385 235.9215 0076690 356.5872   3.4761 14.64829300659849"}}, "geometry": {"type": "Point", "coordinates": [51.64123132321624, 10.931288342917624]}}, {"type": "Feature", "properties": {"norad_id": 35771, "name": "COSMOS 2251 DEB", "group": "cosmos-2251-debris", "lat": -10.143475246858735, "lon": 150.38539359996307, "alt_km": 813.2401255437826, "timestamp": "2025-12-02T23:34:15.913869+00:00", "meta": {"OBJECT_NAME": "COSMOS 2251 DEB", "OBJECT_ID": "1993-036ARR", "EPOCH": "2025-12-01T22:51:30.244896", "MEAN_MOTION": 14.12926683, "ECCENTRICITY": 0.02319351, "INCLINATION": 74.1552, "RA_OF_ASC_NODE": 329.2812, "ARG_OF_PERICENTER": 270.0606, "MEAN_ANOMALY": 87.396, "EPHEMERIS_TYPE": 0, "CLASSIFICATION_TYPE": "U", "NORAD_CAT_ID": 35771, "ELEMENT_SET_NO": 999, "REV_AT_EPOCH": 82708, "BSTAR": 0.0067662276, "MEAN_MOTION_DOT": 0.00016281, "MEAN_MOTION_DDOT": 0}, "tle": {"line1": "1 35771U 93036ARR 25335.95243339  .00016281  00000+0  67662-2 0  9996", "line2": "2 35771  74.1552 329.2812 0231935 270.0606  87.3960 14.12926683827080"}}, "geometry": {"type": "Point", "coordinates": [150.38539359996307, -10.143475246858735]}}, {"type": "Feature", "properties": {"norad_id": 35773, "name": "COSMOS 2251 DEB", "group": "cosmos-2251-debris", "lat": 26.635815778558072, "lon": 171.26577151312944, "alt_km": 653.3680738882049, "timestamp": "2025-12-02T23:34:15.913879+00:00", "meta": {"OBJECT_NAME": "COSMOS 2251 DEB", "OBJECT_ID": "1993-036ART", "EPOCH": "2025-12-02T11:22:55.223328", "MEAN_MOTION": 14.61975653, "ECCENTRICITY": 0.0046128, "INCLINATION": 74.0081, "RA_OF_ASC_NODE": 0.509, "ARG_OF_PERICENTER": 163.389, "MEAN_ANOMALY": 196.8801, "EPHEMERIS_TYPE": 0, "CLASSIFICATION_TYPE": "U", "NORAD_CAT_ID": 35773, "ELEMENT_SET_NO": 999, "REV_AT_EPOCH": 86689, "BSTAR": 0.00069667, "MEAN_MOTION_DOT": 3.515e-05, "MEAN_MOTION_DDOT": 0}, "tle": {"line1": "1 35773U 93036ART 25336.47425027  .00003515  00000+0  69667-3 0  9996", "line2": "2 35773  74.0081   0.5090 0046128 163.3890 196.8801 14.61975653866899"}}, "geometry": {"type": "Point", "coordinates": [171.26577151312944, 26.635815778558072]}}, {"type": "Feature", "properties": {"norad_id": 35777, "name": "COSMOS 2251 DEB", "group": "cosmos-2251-debris", "lat": -48.93624961050647, "lon": 177.86282814282904, "alt_km": 772.4777881289028, "timestamp": "2025-12-02T23:34:15.913890+00:00", "meta": {"OBJECT_NAME": "COSMOS 2251 DEB", "OBJECT_ID": "1993-036ARX", "EPOCH": "2025-12-02T10:40:29.463744", "MEAN_MOTION": 13.41287955, "ECCENTRICITY": 0.0452803, "INCLINATION": 73.7709, "RA_OF_ASC_NODE": 339.1914, "ARG_OF_PERICENTER": 235.501, "MEAN_ANOMALY": 282.7283, "EPHEMERIS_TYPE": 0, "CLASSIFICATION_TYPE": "U", "NORAD_CAT_ID": 35777, "ELEMENT_SET_NO": 999, "REV_AT_EPOCH": 79546, "BSTAR": 0.00081767, "MEAN_MOTION_DOT": 8.07e-06, "MEAN_MOTION_DDOT": 0}, "tle": {"line1": "1 35777U 93036ARX 25336.44478546  .00000807  00000+0  81767-3 0  9997", "line2": "2 35777  73.7709 339.1914 0452803 235.5010 282.7283 13.41287955795460"}}, "geometry": {"type": "Point", "coordinates": [177.86282814282904, -48.93624961050647]}}, {"type": "Feature", "properties": {"norad_id": 35784, "name": "COSMOS 2251 DEB", "group": "cosmos-2251-debris", "lat": -46.80854535651354, "lon": -54.21812417700064, "alt_km": 702.7414261959711, "timestamp": "2025-12-02T23:34:15.913900+00:00", "meta": {"OBJECT_NAME": "COSMOS 2251 DEB", "OBJECT_ID": "1993-036ASE", "EPOCH": "2025-11-30T02:37:28.354944", "MEAN_MOTION": 14.49985321, "ECCENTRICITY": 0.00421284, "INCLINATION": 74.0362, "RA_OF_ASC_NODE": 113.4211, "ARG_OF_PERICENTER": 246.5375, "MEAN_ANOMALY": 113.1355, "EPHEMERIS_TYPE": 0, "CLASSIFICATION_TYPE": "U", "NORAD_CAT_ID": 35784, "ELEMENT_SET_NO": 999, "REV_AT_EPOCH": 65523, "BSTAR": 0.00039422851, "MEAN_MOTION_DOT": 1.515e-05, "MEAN_MOTION_DDOT": 0}, "tle": {"line1": "1 35784U 93036ASE 25334.10935596  .00001515  00000+0  39423-3 0  9998", "line2": "2 35784  74.0362 113.4211 0042128 246.5375 113.1355 14.49985321655239"}}, "geometry": {"type": "Point", "coordinates": [-54.21812417700064, -46.80854535651354]}}, {"type": "Feature", "properties": {"norad_id": 35786, "name": "COSMOS 2251 DEB", "group": "cosmos-2251-debris", "lat": -54.17163280950603, "lon": 39.20683284680991, "alt_km": 688.0209019482936, "timestamp": "2025-12-02T23:34:15.913910+00:00", "meta": {"OBJECT_NAME": "COSMOS 2251 DEB", "OBJECT_ID": "1993-036ASG", "EPOCH": "2025-12-02T12:22:11.536320", "MEAN_MOTION": 14.66021148, "ECCENTRICITY": 0.0035031, "INCLINATION": 74.016, "RA_OF_ASC_NODE": 63.4983, "ARG_OF_PERICENTER": 195.5115, "MEAN_ANOMALY": 164.4984, "EPHEMERIS_TYPE": 0, "CLASSIFICATION_TYPE": "U", "NORAD_CAT_ID": 35786, "ELEMENT_SET_NO": 999, "REV_AT_EPOCH": 73258, "BSTAR": 0.0015898, "MEAN_MOTION_DOT": 8.775e-05, "MEAN_MOTION_DDOT": 0}, "tle": {"line1": "1 35786U 93036ASG 25336.51541130  .00008775  00000+0  15898-2 0  9998", "line2": "2 35786  74.0160  63.4983 0035031 195.5115 164.4984 14.66021148732585"}}, "geometry": {"type": "Point", "coordinates": [39.20683284680991, -54.17163280950603]}}, {"type": "Feature", "properties": {"norad_id": 35789, "name": "COSMOS 2251 DEB", "group": "cosmos-2251-debris", "lat": -25.973477505424505, "lon": -65.7318165651311, "alt_km": 766.3269557864824, "timestamp": "2025-12-02T23:34:15.913921+00:00", "meta": {"OBJECT_NAME": "COSMOS 2251 DEB", "OBJECT_ID": "1993-036ASK", "EPOCH": "2025-11-30T08:09:35.692416", "MEAN_MOTION": 14.35969306, "ECCENTRICITY": 0.00469384, "INCLINATION": 74.039, "RA_OF_ASC_NODE": 307.1301, "ARG_OF_PERICENTER": 49.9649, "MEAN_ANOMALY": 310.5607, "EPHEMERIS_TYPE": 0, "CLASSIFICATION_TYPE": "U", "NORAD_CAT_ID": 35789, "ELEMENT_SET_NO": 999, "REV_AT_EPOCH": 61049, "BSTAR": 0.00014941887, "MEAN_MOTION_DOT": 4.13e-06, "MEAN_MOTION_DDOT": 0}, "tle": {"line1": "1 35789U 93036ASK 25334.33999644  .00000413  00000+0  14942-3 0  9997", "line2": "2 35789  74.0390 307.1301 0046938  49.9649 310.5607 14.35969306610491"}}, "geometry": {"type": "Point", "coordinates": [-65.7318165651311, -25.973477505424505]}}]}